OBJECT_NAME,OBJECT_ID,EPOCH,MEAN_MOTION,ECCENTRICITY,INCLINATION,RA_OF_ASC_NODE,ARG_OF_PERICENTER,MEAN_ANOMALY,EPHEMERIS_TYPE,CLASSIFICATION_TYPE,NORAD_CAT_ID,ELEMENT_SET_NO,REV_AT_EPOCH,BSTAR,MEAN_MOTION_DOT,MEAN_MOTION_DDOT
ALISIO-1,2023-185M,2026-07-18T20:17:38.891328,15.17261386,.0006003,97.5355,273.0281,190.9078,169.2026,0,U,58562,999,14335,.11119E-3,.2146E-4,0
QPS-SAR-5 (TSUKUYOMI-I),2023-196A,2026-07-18T20:19:52.091616,15.23227277,.0025733,42.0076,195.4954,136.6346,223.6519,0,U,58578,999,14307,.24955E-3,.5848E-4,0
YAOGAN-41,2023-197A,2026-07-18T17:13:57.825696,1.00275672,.0013951,3.0719,313.6471,200.6517,163.8357,0,U,58582,999,964,0,-.367E-5,0
ARKTIKA-M 2,2023-198A,2026-07-15T04:12:00.091584,2.00608092,.69107365,63.2178,151.2342,267.3397,18.7345,0,U,58584,999,1888,0,.129E-5,0
STARLINK-31044,2023-200A,2026-07-18T05:43:15.606048,15.27568373,.00008575,43.0022,151.8156,256.0386,104.0370,0,U,58589,999,14357,.24664947E-4,.417E-5,0
STARLINK-31062,2023-200B,2026-07-18T05:03:41.594112,15.27575887,.00016868,43.0036,155.0417,261.1681,98.8979,0,U,58590,999,14353,.25243106E-4,.432E-5,0
STARLINK-31096,2023-200D,2026-07-18T21:09:56.047680,15.38371606,.0014883,42.9959,144.5700,165.4125,194.7163,0,U,58592,999,14371,.11363E-2,.44076E-3,0
STARLINK-31094,2023-200E,2026-07-18T20:45:58.459680,15.27576276,.0001224,43.0022,147.9437,265.2381,94.8331,0,U,58593,999,14367,.25194E-4,.431E-5,0
STARLINK-31075,2023-200F,2026-07-18T06:08:57.806304,15.27579706,.00010242,43.0027,151.1106,313.6727,46.4039,0,U,58594,999,14358,-.12413688E-4,-.604E-5,0
STARLINK-30857,2023-200G,2026-07-18T05:15:30.450816,15.27573568,.00011643,43.0018,151.6912,262.0657,98.0063,0,U,58595,999,14357,.41910393E-4,.891E-5,0
STARLINK-31059,2023-200H,2026-07-18T17:47:11.783040,15.27578668,.0001131,43.0038,352.0212,253.8874,106.1853,0,U,58596,999,14549,.25425E-4,.438E-5,0
STARLINK-31087,2023-200J,2026-07-18T06:14:30.408288,15.27575560,.00014314,43.0030,151.1464,275.6355,84.4333,0,U,58597,999,14347,.12971001E-4,.95E-6,0
STARLINK-31079,2023-200K,2026-07-18T01:27:08.718048,15.72550581,.00333164,42.9737,90.5970,214.4213,145.4497,0,U,58598,999,14426,.49767705E-3,.71137E-3,0
STARLINK-31052,2023-200M,2026-07-18T20:27:27.937152,15.27580614,.0001583,43.0042,147.8455,259.5803,100.4870,0,U,58600,999,14367,.17501E-4,.219E-5,0
STARLINK-31074,2023-200N,2026-07-18T04:51:27.264960,15.27575557,.0001103,43.0018,151.5656,277.8629,82.2098,0,U,58601,999,14357,.32737235E-4,.639E-5,0
STARLINK-31071,2023-200P,2026-07-18T19:27:35.322336,15.27581669,.000133,43.0039,348.1752,274.4399,85.6301,0,U,58602,999,14554,.83468E-4,.2035E-4,0
STARLINK-31080,2023-200Q,2026-07-18T20:38:34.113984,15.27574901,.0001229,43.0023,147.8942,269.2985,90.7726,0,U,58603,999,14348,.24813E-4,.421E-5,0
STARLINK-31088,2023-200R,2026-07-18T06:34:51.421728,15.27581914,.00013259,43.0022,151.2264,255.8800,104.1905,0,U,58604,999,14358,.55565478E-4,.1267E-4,0
STARLINK-31038,2023-200S,2026-07-18T21:19:56.010144,15.38952363,.0011261,42.9980,142.9308,166.1741,193.9425,0,U,58605,999,14373,.12043E-2,.4758E-3,0
STARLINK-31082,2023-200T,2026-07-18T20:47:48.987744,15.27577205,.0001343,43.0024,147.9469,265.1990,94.8708,0,U,58606,999,14367,.30796E-4,.585E-5,0
STARLINK-31069,2023-200U,2026-07-18T20:58:56.902080,15.27561209,.0000642,43.0006,147.9993,252.4964,107.5817,0,U,58607,999,14367,-.41334E-4,-.1398E-4,0
STARLINK-31067,2023-200V,2026-07-18T21:04:28.391232,15.27576714,.0000994,43.0013,148.0258,235.8465,124.2292,0,U,58608,999,14367,.21476E-4,.329E-5,0
STARLINK-31085,2023-200W,2026-07-18T13:19:15.098304,15.27573998,.0000785,43.0007,149.9018,263.5898,96.4864,0,U,58609,999,14362,.72111E-4,.1723E-4,0
STARLINK-31089,2023-200X,2026-07-18T05:48:47.983392,15.27574384,.00010754,43.0027,151.8068,269.2705,90.8024,0,U,58610,999,14357,.12840916E-4,.91E-6,0
STARLINK-31061,2023-200Y,2026-07-18T21:13:42.953952,15.27578522,.0001138,43.0002,148.0726,265.5029,94.5692,0,U,58611,999,14367,.16088E-4,.181E-5,0
COSMOS 2573,2023-201A,2026-07-18T21:01:18.053760,15.25069862,.000064,97.6284,149.9167,71.9484,288.1823,0,U,58614,999,14331,.7439E-4,.1784E-4,0
STARLINK-31054,2023-203B,2026-07-18T14:51:23.397120,15.27571845,.0001042,43.0032,47.8207,266.9083,93.1650,0,U,58619,999,14358,.35526E-4,.715E-5,0
STARLINK-31134,2023-203D,2026-07-17T23:41:16.895040,15.27574611,.00016901,43.0045,51.6744,255.3231,104.7433,0,U,58621,999,14348,-.381502E-5,-.367E-5,0
STARLINK-31133,2023-203E,2026-07-18T14:45:50.149728,15.27576413,.0001112,43.0018,47.7917,272.3168,87.7557,0,U,58622,999,14358,.49461E-4,.1099E-4,0
STARLINK-31068,2023-203F,2026-07-17T22:58:43.439808,15.27573815,.00010969,43.0016,51.4553,259.7377,100.3351,0,U,58623,999,14348,.1532098E-4,.16E-5,0
