ALISIO-1                
1 58562U 23185M   26199.84558902  .00002146  00000+0  11119-3 0  9991
2 58562  97.5355 273.0281 0006003 190.9078 169.2026 15.17261386143350
QPS-SAR-5 (TSUKUYOMI-I) 
1 58578U 23196A   26199.84713069  .00005848  00000+0  24955-3 0  9991
2 58578  42.0076 195.4954 0025733 136.6346 223.6519 15.23227277143071
YAOGAN-41               
1 58582U 23197A   26199.71803039 -.00000367  00000+0  00000+0 0  9993
2 58582   3.0719 313.6471 0013951 200.6517 163.8357  1.00275672  9647
ARKTIKA-M 2             
1 58584U 23198A   26196.17500106  .00000129  00000+0  00000+0 0  9997
2 58584  63.2178 151.2342 6910736 267.3397  18.7345  2.00608092 18886
STARLINK-31044          
1 58589U 23200A   26199.23837507  .00000417  00000+0  24665-4 0  9992
2 58589  43.0022 151.8156 0000857 256.0386 104.0370 15.27568373143577
STARLINK-31062          
1 58590U 23200B   26199.21089808  .00000432  00000+0  25243-4 0  9995
2 58590  43.0036 155.0417 0001686 261.1681  98.8979 15.27575887143535
STARLINK-31096          
1 58592U 23200D   26199.88189870  .00044076  00000+0  11363-2 0  9998
2 58592  42.9959 144.5700 0014883 165.4125 194.7163 15.38371606143715
STARLINK-31094          
1 58593U 23200E   26199.86525995  .00000431  00000+0  25194-4 0  9995
2 58593  43.0022 147.9437 0001224 265.2381  94.8331 15.27576276143671
STARLINK-31075          
1 58594U 23200F   26199.25622461 -.00000604  00000+0 -12414-4 0  9990
2 58594  43.0027 151.1106 0001024 313.6727  46.4039 15.27579706143586
STARLINK-30857          
1 58595U 23200G   26199.21910244  .00000891  00000+0  41910-4 0  9995
2 58595  43.0018 151.6912 0001164 262.0657  98.0063 15.27573568143570
STARLINK-31059          
1 58596U 23200H   26199.74110860  .00000438  00000+0  25425-4 0  9990
2 58596  43.0038 352.0212 0001131 253.8874 106.1853 15.27578668145493
STARLINK-31087          
1 58597U 23200J   26199.26007417  .00000095  00000+0  12971-4 0  9992
2 58597  43.0030 151.1464 0001431 275.6355  84.4333 15.27575560143477
STARLINK-31079          
1 58598U 23200K   26199.06051757  .00071137  00000+0  49768-3 0  9995
2 58598  42.9737  90.5970 0033316 214.4213 145.4497 15.72550581144262
STARLINK-31052          
1 58600U 23200M   26199.85240668  .00000219  00000+0  17501-4 0  9991
2 58600  43.0042 147.8455 0001583 259.5803 100.4870 15.27580614143677
STARLINK-31074          
1 58601U 23200N   26199.20239890  .00000639  00000+0  32737-4 0  9990
2 58601  43.0018 151.5656 0001103 277.8629  82.2098 15.27575557143571
STARLINK-31071          
1 58602U 23200P   26199.81082549  .00002035  00000+0  83468-4 0  9994
2 58602  43.0039 348.1752 0001330 274.4399  85.6301 15.27581669145549
STARLINK-31080          
1 58603U 23200Q   26199.86011706  .00000421  00000+0  24813-4 0  9993
2 58603  43.0023 147.8942 0001229 269.2985  90.7726 15.27574901143488
STARLINK-31088          
1 58604U 23200R   26199.27420627  .00001267  00000+0  55565-4 0  9992
2 58604  43.0022 151.2264 0001325 255.8800 104.1905 15.27581914143580
STARLINK-31038          
1 58605U 23200S   26199.88884271  .00047580  00000+0  12043-2 0  9999
2 58605  42.9980 142.9308 0011261 166.1741 193.9425 15.38952363143738
STARLINK-31082          
1 58606U 23200T   26199.86653921  .00000585  00000+0  30796-4 0  9995
2 58606  43.0024 147.9469 0001343 265.1990  94.8708 15.27577205143671
STARLINK-31069          
1 58607U 23200U   26199.87426970 -.00001398  00000+0 -41334-4 0  9994
2 58607  43.0006 147.9993 0000642 252.4964 107.5817 15.27561209143675
STARLINK-31067          
1 58608U 23200V   26199.87810638  .00000329  00000+0  21476-4 0  9999
2 58608  43.0013 148.0258 0000994 235.8465 124.2292 15.27576714143671
STARLINK-31085          
1 58609U 23200W   26199.55503586  .00001723  00000+0  72111-4 0  9997
2 58609  43.0007 149.9018 0000785 263.5898  96.4864 15.27573998143626
STARLINK-31089          
1 58610U 23200X   26199.24222203  .00000091  00000+0  12841-4 0  9990
2 58610  43.0027 151.8068 0001075 269.2705  90.8024 15.27574384143570
STARLINK-31061          
1 58611U 23200Y   26199.88452493  .00000181  00000+0  16088-4 0  9994
2 58611  43.0002 148.0726 0001138 265.5029  94.5692 15.27578522143672
COSMOS 2573             
1 58614U 23201A   26199.87590340  .00001784  00000+0  74390-4 0  9991
2 58614  97.6284 149.9167 0000640  71.9484 288.1823 15.25069862143310
STARLINK-31054          
1 58619U 23203B   26199.61902080  .00000715  00000+0  35526-4 0  9999
2 58619  43.0032  47.8207 0001042 266.9083  93.1650 15.27571845143582
STARLINK-31134          
1 58621U 23203D   26198.98700110 -.00000367  00000+0 -38150-5 0  9993
2 58621  43.0045  51.6744 0001690 255.3231 104.7433 15.27574611143485
STARLINK-31133          
1 58622U 23203E   26199.61516377  .00001099  00000+0  49461-4 0  9992
2 58622  43.0018  47.7917 0001112 272.3168  87.7557 15.27576413143581
STARLINK-31068          
1 58623U 23203F   26198.95744722  .00000160  00000+0  15321-4 0  9992
2 58623  43.0016  51.4553 0001096 259.7377 100.3351 15.27573815143486
